[{"OBJECT_NAME":"ONEWEB-0058","OBJECT_ID":"2020-008AG","EPOCH":"2026-01-30T03:45:06.170688","MEAN_MOTION":13.10373471,"ECCENTRICITY":0.00016164,"INCLINATION":87.8755,"RA_OF_ASC_NODE":63.7904,"ARG_OF_PERICENTER":101.5355,"MEAN_ANOMALY":258.5953,"EPHEMERIS_TYPE":0,"CLASSIFICATION_TYPE":"U","NORAD_CAT_ID":45161,"ELEMENT_SET_NO":999,"REV_AT_EPOCH":29034,"BSTAR":0.0019021703,"MEAN_MOTION_DOT":6.77e-6,"MEAN_MOTION_DDOT":0},{"OBJECT_NAME":"ONEWEB-0059","OBJECT_ID":"2020-008AH","EPOCH":"2026-01-30T03:40:07.220640","MEAN_MOTION":13.10374261,"ECCENTRICITY":0.00016904,"INCLINATION":87.8756,"RA_OF_ASC_NODE":63.7915,"ARG_OF_PERICENTER":93.3145,"MEAN_ANOMALY":266.8176,"EPHEMERIS_TYPE":0,"CLASSIFICATION_TYPE":"U","NORAD_CAT_ID":45162,"ELEMENT_SET_NO":999,"REV_AT_EPOCH":29024,"BSTAR":0.0017458515,"MEAN_MOTION_DOT":6.22e-6,"MEAN_MOTION_DDOT":0},{"OBJECT_NAME":"ONEWEB-0062","OBJECT_ID":"2020-008AJ","EPOCH":"2026-01-30T02:27:12.011904","MEAN_MOTION":13.10370096,"ECCENTRICITY":0.0001507,"INCLINATION":87.8761,"RA_OF_ASC_NODE":63.7807,"ARG_OF_PERICENTER":106.8169,"MEAN_ANOMALY":253.3124,"EPHEMERIS_TYPE":0,"CLASSIFICATION_TYPE":"U","NORAD_CAT_ID":45163,"ELEMENT_SET_NO":999,"REV_AT_EPOCH":29010,"BSTAR":-0.00085608305,"MEAN_MOTION_DOT":-2.86e-6,"MEAN_MOTION_DDOT":0},{"OBJECT_NAME":"ONEWEB-0065","OBJECT_ID":"2020-008AK","EPOCH":"2026-01-30T03:11:13.868160","MEAN_MOTION":13.10376151,"ECCENTRICITY":0.00021954,"INCLINATION":87.8756,"RA_OF_ASC_NODE":63.7871,"ARG_OF_PERICENTER":91.7431,"MEAN_ANOMALY":268.3947,"EPHEMERIS_TYPE":0,"CLASSIFICATION_TYPE":"U","NORAD_CAT_ID":45164,"ELEMENT_SET_NO":999,"REV_AT_EPOCH":28980,"BSTAR":-0.0003336503,"MEAN_MOTION_DOT":-1.04e-6,"MEAN_MOTION_DDOT":0},{"OBJECT_NAME":"ONEWEB-0066","OBJECT_ID":"2020-020A","EPOCH":"2026-01-30T03:01:12.474048","MEAN_MOTION":13.11413949,"ECCENTRICITY":0.00017253,"INCLINATION":87.8819,"RA_OF_ASC_NODE":48.5399,"ARG_OF_PERICENTER":88.2995,"MEAN_ANOMALY":271.8331,"EPHEMERIS_TYPE":0,"CLASSIFICATION_TYPE":"U","NORAD_CAT_ID":45424,"ELEMENT_SET_NO":999,"REV_AT_EPOCH":28458,"BSTAR":0.00056764237,"MEAN_MOTION_DOT":2.14e-6,"MEAN_MOTION_DDOT":0},{"OBJECT_NAME":"ONEWEB-0067","OBJECT_ID":"2020-020B","EPOCH":"2026-01-30T00:15:23.386176","MEAN_MOTION":13.11418329,"ECCENTRICITY":0.00019539,"INCLINATION":87.8834,"RA_OF_ASC_NODE":48.4692,"ARG_OF_PERICENTER":86.7384,"MEAN_ANOMALY":273.3967,"EPHEMERIS_TYPE":0,"CLASSIFICATION_TYPE":"U","NORAD_CAT_ID":45425,"ELEMENT_SET_NO":999,"REV_AT_EPOCH":28462,"BSTAR":-0.00056101072,"MEAN_MOTION_DOT":-1.86e-6,"MEAN_MOTION_DDOT":0},{"OBJECT_NAME":"ONEWEB-0080","OBJECT_ID":"2020-020C","EPOCH":"2026-01-30T02:18:29.634912","MEAN_MOTION":13.11419052,"ECCENTRICITY":0.0001494,"INCLINATION":87.882,"RA_OF_ASC_NODE":48.545,"ARG_OF_PERICENTER":92.6371,"MEAN_ANOMALY":267.4928,"EPHEMERIS_TYPE":0,"CLASSIFICATION_TYPE":"U","NORAD_CAT_ID":45426,"ELEMENT_SET_NO":999,"REV_AT_EPOCH":28460,"BSTAR":0.00058471956,"MEAN_MOTION_DOT":2.2e-6,"MEAN_MOTION_DDOT":0},{"OBJECT_NAME":"ONEWEB-0090","OBJECT_ID":"2020-020D","EPOCH":"2026-01-30T02:46:46.589664","MEAN_MOTION":13.11416426,"ECCENTRICITY":0.00017468,"INCLINATION":87.8819,"RA_OF_ASC_NODE":48.5426,"ARG_OF_PERICENTER":93.4068,"MEAN_ANOMALY":266.726,"EPHEMERIS_TYPE":0,"CLASSIFICATION_TYPE":"U","NORAD_CAT_ID":45427,"ELEMENT_SET_NO":999,"REV_AT_EPOCH":28457,"BSTAR":0.00057621757,"MEAN_MOTION_DOT":2.17e-6,"MEAN_MOTION_DDOT":0},{"OBJECT_NAME":"ONEWEB-0061","OBJECT_ID":"2020-020E","EPOCH":"2026-01-30T07:12:27.793152","MEAN_MOTION":13.11414963,"ECCENTRICITY":0.0001792,"INCLINATION":87.8822,"RA_OF_ASC_NODE":48.4896,"ARG_OF_PERICENTER":91.8586,"MEAN_ANOMALY":268.2747,"EPHEMERIS_TYPE":0,"CLASSIFICATION_TYPE":"U","NORAD_CAT_ID":45428,"ELEMENT_SET_NO":999,"REV_AT_EPOCH":28455,"BSTAR":-0.0015052129,"MEAN_MOTION_DOT":-5.21e-6,"MEAN_MOTION_DDOT":0},{"OBJECT_NAME":"ONEWEB-0081","OBJECT_ID":"2020-020F","EPOCH":"2026-01-30T01:16:13.484640","MEAN_MOTION":13.11415242,"ECCENTRICITY":0.00018181,"INCLINATION":87.8823,"RA_OF_ASC_NODE":48.5539,"ARG_OF_PERICENTER":83.5285,"MEAN_ANOMALY":276.605,"EPHEMERIS_TYPE":0,"CLASSIFICATION_TYPE":"U","NORAD_CAT_ID":45429,"ELEMENT_SET_NO":999,"REV_AT_EPOCH":28463,"BSTAR":0.00039362403,"MEAN_MOTION_DOT":1.52e-6,"MEAN_MOTION_DDOT":0},{"OBJECT_NAME":"ONEWEB-0069","OBJECT_ID":"2020-020G","EPOCH":"2026-01-30T06:29:57.745536","MEAN_MOTION":13.1141485,"ECCENTRICITY":0.00018177,"INCLINATION":87.882,"RA_OF_ASC_NODE":48.5066,"ARG_OF_PERICENTER":89.6453,"MEAN_ANOMALY":270.4883,"EPHEMERIS_TYPE":0,"CLASSIFICATION_TYPE":"U","NORAD_CAT_ID":45430,"ELEMENT_SET_NO":999,"REV_AT_EPOCH":28459,"BSTAR":0.0014493785,"MEAN_MOTION_DOT":5.26e-6,"MEAN_MOTION_DDOT":0},{"OBJECT_NAME":"ONEWEB-0031","OBJECT_ID":"2020-020H","EPOCH":"2026-01-30T00:20:03.585696","MEAN_MOTION":13.11417673,"ECCENTRICITY":0.00017128,"INCLINATION":87.8817,"RA_OF_ASC_NODE":48.5784,"ARG_OF_PERICENTER":96.7767,"MEAN_ANOMALY":263.3556,"EPHEMERIS_TYPE":0,"CLASSIFICATION_TYPE":"U","NORAD_CAT_ID":45431,"ELEMENT_SET_NO":999,"REV_AT_EPOCH":28454,"BSTAR":-0.00010190254,"MEAN_MOTION_DOT":-2.3e-7,"MEAN_MOTION_DDOT":0},{"OBJECT_NAME":"ONEWEB-0027","OBJECT_ID":"2020-020J","EPOCH":"2026-01-30T06:05:38.674176","MEAN_MOTION":13.17650541,"ECCENTRICITY":0.00019337,"INCLINATION":87.9094,"RA_OF_ASC_NODE":33.2466,"ARG_OF_PERICENTER":101.3323,"MEAN_ANOMALY":258.8026,"EPHEMERIS_TYPE":0,"CLASSIFICATION_TYPE":"U","NORAD_CAT_ID":45432,"ELEMENT_SET_NO":999,"REV_AT_EPOCH":28819,"BSTAR":0.0001949739,"MEAN_MOTION_DOT":8.9e-7,"MEAN_MOTION_DDOT":0},{"OBJECT_NAME":"ONEWEB-0064","OBJECT_ID":"2020-020K","EPOCH":"2026-01-30T07:37:05.060352","MEAN_MOTION":13.11417495,"ECCENTRICITY":0.00017966,"INCLINATION":87.8816,"RA_OF_ASC_NODE":48.5078,"ARG_OF_PERICENTER":97.03,"MEAN_ANOMALY":263.1032,"EPHEMERIS_TYPE":0,"CLASSIFICATION_TYPE":"U","NORAD_CAT_ID":45433,"ELEMENT_SET_NO":999,"REV_AT_EPOCH":28461,"BSTAR":-0.00061786045,"MEAN_MOTION_DOT":-2.06e-6,"MEAN_MOTION_DDOT":0},{"OBJECT_NAME":"ONEWEB-0018","OBJECT_ID":"2020-020L","EPOCH":"2026-01-30T02:53:53.261376","MEAN_MOTION":13.11415603,"ECCENTRICITY":0.00016418,"INCLINATION":87.8821,"RA_OF_ASC_NODE":48.5407,"ARG_OF_PERICENTER":87.3736,"MEAN_ANOMALY":272.758,"EPHEMERIS_TYPE":0,"CLASSIFICATION_TYPE":"U","NORAD_CAT_ID":45434,"ELEMENT_SET_NO":999,"REV_AT_EPOCH":28453,"BSTAR":0.00088453243,"MEAN_MOTION_DOT":3.26e-6,"MEAN_MOTION_DDOT":0},{"OBJECT_NAME":"ONEWEB-0083","OBJECT_ID":"2020-020M","EPOCH":"2026-01-30T02:40:28.965504","MEAN_MOTION":13.11416603,"ECCENTRICITY":0.00017653,"INCLINATION":87.8822,"RA_OF_ASC_NODE":48.5307,"ARG_OF_PERICENTER":94.2152,"MEAN_ANOMALY":265.9177,"EPHEMERIS_TYPE":0,"CLASSIFICATION_TYPE":"U","NORAD_CAT_ID":45435,"ELEMENT_SET_NO":999,"REV_AT_EPOCH":28457,"BSTAR":0.0016263801,"MEAN_MOTION_DOT":5.89e-6,"MEAN_MOTION_DDOT":0},{"OBJECT_NAME":"ONEWEB-0095","OBJECT_ID":"2020-020N","EPOCH":"2026-01-30T07:56:50.169408","MEAN_MOTION":13.11417564,"ECCENTRICITY":0.00025702,"INCLINATION":87.8819,"RA_OF_ASC_NODE":48.4967,"ARG_OF_PERICENTER":98.528,"MEAN_ANOMALY":261.614,"EPHEMERIS_TYPE":0,"CLASSIFICATION_TYPE":"U","NORAD_CAT_ID":45436,"ELEMENT_SET_NO":999,"REV_AT_EPOCH":28460,"BSTAR":0.0012431112,"MEAN_MOTION_DOT":4.53e-6,"MEAN_MOTION_DDOT":0}]
