ONEWEB-0058             
1 45161U 20008AG  26030.15632142  .00000677  00000+0  19022-2 0  9997
2 45161  87.8755  63.7904 0001616 101.5355 258.5953 13.10373471290347
ONEWEB-0059             
1 45162U 20008AH  26030.15286135  .00000622  00000+0  17459-2 0  9997
2 45162  87.8756  63.7915 0001690  93.3145 266.8176 13.10374261290244
ONEWEB-0062             
1 45163U 20008AJ  26030.10222236 -.00000286  00000+0 -85608-3 0  9995
2 45163  87.8761  63.7807 0001507 106.8169 253.3124 13.10370096290105
ONEWEB-0065             
1 45164U 20008AK  26030.13279940 -.00000104  00000+0 -33365-3 0  9995
2 45164  87.8756  63.7871 0002195  91.7431 268.3947 13.10376151289801
ONEWEB-0066             
1 45424U 20020A   26030.12583882  .00000214  00000+0  56764-3 0  9998
2 45424  87.8819  48.5399 0001725  88.2995 271.8331 13.11413949284584
ONEWEB-0067             
1 45425U 20020B   26030.01068734 -.00000186  00000+0 -56101-3 0  9996
2 45425  87.8834  48.4692 0001953  86.7384 273.3967 13.11418329284629
ONEWEB-0080             
1 45426U 20020C   26030.09617633  .00000220  00000+0  58472-3 0  9993
2 45426  87.8820  48.5450 0001494  92.6371 267.4928 13.11419052284603
ONEWEB-0090             
1 45427U 20020D   26030.11581701  .00000217  00000+0  57622-3 0  9995
2 45427  87.8819  48.5426 0001746  93.4068 266.7260 13.11416426284576
ONEWEB-0061             
1 45428U 20020E   26030.30032168 -.00000521  00000+0 -15052-2 0  9995
2 45428  87.8822  48.4896 0001792  91.8586 268.2747 13.11414963284558
ONEWEB-0081             
1 45429U 20020F   26030.05293385  .00000152  00000+0  39362-3 0  9997
2 45429  87.8823  48.5539 0001818  83.5285 276.6050 13.11415242284638
ONEWEB-0069             
1 45430U 20020G   26030.27080724  .00000526  00000+0  14494-2 0  9997
2 45430  87.8820  48.5066 0001817  89.6453 270.4883 13.11414850284590
ONEWEB-0031             
1 45431U 20020H   26030.01393039 -.00000023  00000+0 -10190-3 0  9990
2 45431  87.8817  48.5784 0001712  96.7767 263.3556 13.11417673284544
ONEWEB-0027             
1 45432U 20020J   26030.25391984  .00000089  00000+0  19497-3 0  9993
2 45432  87.9094  33.2466 0001933 101.3323 258.8026 13.17650541288192
ONEWEB-0064             
1 45433U 20020K   26030.31741968 -.00000206  00000+0 -61786-3 0  9993
2 45433  87.8816  48.5078 0001796  97.0300 263.1032 13.11417495284617
ONEWEB-0018             
1 45434U 20020L   26030.12075534  .00000326  00000+0  88453-3 0  9993
2 45434  87.8821  48.5407 0001641  87.3736 272.7580 13.11415603284538
ONEWEB-0083             
1 45435U 20020M   26030.11144636  .00000589  00000+0  16264-2 0  9994
2 45435  87.8822  48.5307 0001765  94.2152 265.9177 13.11416603284576
ONEWEB-0095             
1 45436U 20020N   26030.33113622  .00000453  00000+0  12431-2 0  9992
2 45436  87.8819  48.4967 0002570  98.5280 261.6140 13.11417564284602
